{"type":"FeatureCollection","features":[{"type":"Feature","geometry":{"coordinates":[[[106.73743564786378,-6.223878311147446,0],[106.73743505228072,-6.22387845048751,0],[106.73750609195169,-6.22422225719076,0],[106.73776707140637,-6.22536659142868,0],[106.73955945923151,-6.225372488643536,0],[106.73975413313674,-6.225503429270312,0],[106.73977733392559,-6.226197150553482,0],[106.74040200081458,-6.226227985925132,0],[106.74032903246068,-6.227663670203286,0],[106.74155758640957,-6.227767274629959,0],[106.7426617084202,-6.227291128654041,0],[106.74330809208121,-6.227564120073911,0],[106.74325528012565,-6.228766475690003,0],[106.74417301249466,-6.228859139557659,0],[106.74442161496133,-6.229031765847064,0],[106.74390349634986,-6.230498824039652,0],[106.74544957151397,-6.230828644884989,0],[106.7454019823635,-6.231800714986996,0],[106.74459019101091,-6.232117403982739,0],[106.74447719732122,-6.232288235773656,0],[106.74471810302252,-6.232843671983043,0],[106.74478710800939,-6.233830307601301,0],[106.74433303388778,-6.234964013915937,0],[106.74400115220439,-6.23649381884076,0],[106.74683081660326,-6.2363887499782,0],[106.74745440461562,-6.238797020394154,0],[106.74777009596265,-6.239373137854961,0],[106.74822286662881,-6.23983217127375,0],[106.74862327719197,-6.240722008406601,0],[106.74860777586343,-6.240776243192936,0],[106.74843421236736,-6.241383534514231,0],[106.74765624528018,-6.241990196765422,0],[106.74728770604497,-6.242601481531352,0],[106.74698584965164,-6.244190748962298,0],[106.74677082980355,-6.247145757991155,0],[106.7466580562011,-6.247311666785459,0],[106.74711723724508,-6.247969984280136,0],[106.74722738956352,-6.248744156209497,0],[106.7478862247727,-6.249157645395144,0],[106.74817546522621,-6.24953439973424,0],[106.7481953736895,-6.249560332783225,0],[106.74819883938989,-6.250081244391919,0],[106.7476440865828,-6.251111909524944,0],[106.74723136371036,-6.251472194218015,0],[106.74578002038453,-6.25164266813603,0],[106.74565908379108,-6.25165687376895,0],[106.74551198107001,-6.251643558066847,0],[106.74406260325804,-6.251512367864441,0],[106.7383012977092,-6.250990883289055,0],[106.73795360837175,-6.251050806268864,0],[106.73778638787992,-6.252403160207474,0],[106.73717310174725,-6.252332695763756,0],[106.73225248276043,-6.252808573280102,0],[106.72917381704288,-6.252953828519105,0],[106.72494125905466,-6.252554200999677,0],[106.7234456162089,-6.250881558284112,0],[106.72013872451026,-6.250982811875915,0],[106.71448318211144,-6.2515199556502,0],[106.71024549025137,-6.251334266562482,0],[106.70680314069271,-6.250817863410241,0],[106.70587080351386,-6.250940022327447,0],[106.70515959203206,-6.251935105613907,0],[106.7045657777815,-6.25241356429239,0],[106.70403000817298,-6.253559233979782,0],[106.70383141761312,-6.254609182880855,0],[106.70401096388895,-6.256101132182184,0],[106.70345557417635,-6.255300465021039,0],[106.70261860214805,-6.254774122044573,0],[106.6997772919898,-6.253711763938109,0],[106.69938660479126,-6.253434576693483,0],[106.69876219482042,-6.252629086293386,0],[106.69831177504541,-6.251658085513091,0],[106.69614888157291,-6.251507280874742,0],[106.69599985376219,-6.251340690248767,0],[106.69659531642132,-6.248925519703899,0],[106.697221093628,-6.244329238560495,0],[106.69386345070909,-6.244234179110133,0],[106.69297222403091,-6.244144229177858,0],[106.6922375135196,-6.243663941598883,0],[106.69104053714958,-6.243732761277505,0],[106.69078005805655,-6.243538680537184,0],[106.69068504953712,-6.242852136222104,0],[106.68928963262591,-6.240223016103099,0],[106.68890222697314,-6.238818110480648,0],[106.6884317487161,-6.238629728091031,0],[106.68818477938662,-6.239105245167309,0],[106.6877019457012,-6.239292161210176,0],[106.68710340810887,-6.238568587401327,0],[106.68726138134313,-6.237947909298895,0],[106.68742801433677,-6.237817431179069,0],[106.68735189918443,-6.237232923030186,0],[106.68821295863877,-6.236599004545024,0],[106.68825823193245,-6.236246151864543,0],[106.68851689553031,-6.235874052478962,0],[106.68891515013681,-6.235622168241598,0],[106.68892208333418,-6.234888886043304,0],[106.688744627438,-6.234536748659847,0],[106.68837317586465,-6.234463683815181,0],[106.6883817727419,-6.234250175079851,0],[106.68819551245764,-6.234046573591394,0],[106.68880790566494,-6.233648996344912,0],[106.68924209288276,-6.233025726056154,0],[106.68978891895577,-6.232801212646886,0],[106.68976357388837,-6.233580961008236,0],[106.69005123420527,-6.233570757010449,0],[106.69024487325127,-6.233180301796343,0],[106.69049538284132,-6.233160935670316,0],[106.69058904837935,-6.233429805898909,0],[106.6908211748454,-6.233466189169509,0],[106.69113331694875,-6.232407067547387,0],[106.6916716943665,-6.232442467434823,0],[106.69174433124208,-6.231941019294927,0],[106.69008229525285,-6.23167717794504,0],[106.68861635610025,-6.230760297239948,0],[106.68811355915427,-6.230242128665048,0],[106.68681425838521,-6.230227721976322,0],[106.68600630912711,-6.230053951712467,0],[106.68517182273717,-6.230288662284834,0],[106.68363311106341,-6.229921364445962,0],[106.68250055917063,-6.229813597375649,0],[106.68178998818766,-6.230047122331884,0],[106.68163905594854,-6.230888548626445,0],[106.6814815893641,-6.231097025494775,0],[106.67485043524418,-6.230973582675328,0],[106.66154424430273,-6.231295857386805,0],[106.64617310859408,-6.229612412340699,0],[106.64038106898445,-6.229648541474318,0],[106.63832502472509,-6.22989425727225,0],[106.63762649026857,-6.229311227055636,0],[106.63540739370033,-6.227943575337643,0],[106.63199251552138,-6.226575536152457,0],[106.6304112551442,-6.225495331389486,0],[106.62969600034532,-6.226357999503935,0],[106.62944500117345,-6.22619599987926,0],[106.62926799982483,-6.226315000257753,0],[106.62933800104335,-6.226776000499067,0],[106.62900800133045,-6.227400999820448,0],[106.62878900014903,-6.227410000229495,0],[106.6285410004519,-6.227791000021899,0],[106.62816826428768,-6.2279293196105,0],[106.62827285154296,-6.228288933647421,0],[106.62803064957271,-6.228544592589818,0],[106.62620499982752,-6.227955999880458,0],[106.62599399994032,-6.227510001667358,0],[106.62557100034101,-6.227260000283897,0],[106.6206820011539,-6.227854001036515,0],[106.61935900013268,-6.227540000027319,0],[106.6187900000452,-6.227549000433954,0],[106.6189649999474,-6.227318000435822,0],[106.61876200135443,-6.226618000493755,0],[106.61810700015491,-6.225436001463528,0],[106.61776119817786,-6.225370074920691,0],[106.61760338843693,-6.224950786370874,0],[106.61521686835762,-6.225143532823183,0],[106.61495200009607,-6.225690000525731,0],[106.61416499955037,-6.226268000617671,0],[106.61387200054575,-6.226923000745268,0],[106.61282800008213,-6.22730399999677,0],[106.61214000106725,-6.227321000273021,0],[106.61163400072896,-6.22715400091947,0],[106.61123599944737,-6.226634000246125,0],[106.61085954156295,-6.225790546169285,0],[106.61076962469457,-6.225003271622858,0],[106.61247599972961,-6.223837000857091,0],[106.61373299973025,-6.223507999916513,0],[106.61366199958515,-6.221610000691757,0],[106.61384900277616,-6.220253378852952,0],[106.61250700059007,-6.220340000437319,0],[106.60928700023392,-6.220127999756512,0],[106.6097528925914,-6.219964237093491,0],[106.60990928748575,-6.219810484469011,0],[106.61057033883868,-6.218854892605796,0],[106.61253408479585,-6.215903923086933,0],[106.60930114869964,-6.214799747170329,0],[106.60827045587861,-6.214938959318062,0],[106.60575300005843,-6.214750000090667,0],[106.60575499970824,-6.214548000126551,0],[106.60543100074145,-6.214555000518274,0],[106.60543599986603,-6.213902000301332,0],[106.60510600015311,-6.213891999985973,0],[106.60510699997805,-6.213574999599182,0],[106.6043799997068,-6.213573999926612,0],[106.60250900031116,-6.213040999774918,0],[106.60317899978266,-6.210973000037255,0],[106.60479699945833,-6.208420999440262,0],[106.60323900095543,-6.207433999949347,0],[106.6031240004294,-6.207327001346539,0],[106.60331899952473,-6.207008000281465,0],[106.60298069488707,-6.206767073397399,0],[106.60110339830126,-6.205540368650768,0],[106.60000189398133,-6.207193544337197,0],[106.59840299967512,-6.206983999745326,0],[106.59706500128023,-6.207147000555439,0],[106.59653200117778,-6.206467000400645,0],[106.59654699944974,-6.205853000306027,0],[106.59570200097436,-6.205879000269086,0],[106.59560799946641,-6.2073289998167,0],[106.59460599973389,-6.208314000141622,0],[106.59455399985536,-6.208994000577525,0],[106.59482000089245,-6.210011000075531,0],[106.59472299990973,-6.210883999958541,0],[106.59373299987278,-6.213551999937917,0],[106.59455499968026,-6.214245000033037,0],[106.59474699930085,-6.214580000375323,0],[106.59382900103057,-6.217109999643488,0],[106.59361300112049,-6.218108001324035,0],[106.59341800022852,-6.218521000764542,0],[106.59321600056214,-6.218488999859705,0],[106.59236799991707,-6.219989999919825,0],[106.59129699968929,-6.220639000135026,0],[106.59055500024778,-6.221460001765095,0],[106.58968100056174,-6.22142800104153,0],[106.58934500010277,-6.22173000088064,0],[106.58900600016904,-6.222626000094924,0],[106.58812199953896,-6.222506000113343,0],[106.58801005418321,-6.221572063164656,0],[106.58579292133216,-6.221341785075502,0],[106.58483352240536,-6.221377951643419,0],[106.58439379797208,-6.221053393666271,0],[106.58291799980928,-6.22067800121637,0],[106.58229660278788,-6.219481979007161,0],[106.58076100108165,-6.21799600030685,0],[106.58032500016522,-6.216339000566055,0],[106.5799699994397,-6.216202999955864,0],[106.57323400114632,-6.215544999871636,0],[106.57334314196179,-6.214323322293329,0],[106.57132571897144,-6.214111792920352,0],[106.57149399947528,-6.212102000671774,0],[106.57084542212836,-6.212053341110136,0],[106.57072690649463,-6.213324000817493,0],[106.56953057870825,-6.21324145946199,0],[106.56955540005785,-6.212797248372153,0],[106.56677100086783,-6.212070999945796,0],[106.5666099994127,-6.211901000252589,0],[106.56490200022365,-6.211241000757895,0],[106.56658500019668,-6.208311999877259,0],[106.56908400012937,-6.206268000771505,0],[106.56715599993399,-6.205197000876824,0],[106.56511899995864,-6.204429000274406,0],[106.56389799994301,-6.2044420007412,0],[106.56309899970177,-6.204080000414902,0],[106.5600250007321,-6.202282000326375,0],[106.55807099969914,-6.201460000160346,0],[106.5578719995075,-6.200757000435217,0],[106.55420399943772,-6.199441999588187,0],[106.5530400011201,-6.199345000835965,0],[106.55261464703642,-6.199490200935547,0],[106.55280000002227,-6.198894000227622,0],[106.55276800023523,-6.198361000312629,0],[106.55338500000329,-6.198236000712351,0],[106.55393300017437,-6.197773000011205,0],[106.55382899951897,-6.197232001316975,0],[106.55339799952374,-6.197158000742311,0],[106.55322500106803,-6.196729999544885,0],[106.55335300111453,-6.196417000105921,0],[106.55323199984241,-6.196047001043536,0],[106.55399000816061,-6.190344932188436,0],[106.55145400572304,-6.190039464556635,0],[106.55188375167013,-6.188123653860555,0],[106.5533840028733,-6.188134005292762,0],[106.55261100167301,-6.187548000988209,0],[106.5526489995112,-6.187308000992831,0],[106.55296800115008,-6.187131000543404,0],[106.55246600100976,-6.186654998955559,0],[106.55236500072739,-6.186298001075757,0],[106.55293600046471,-6.18582500150153,0],[106.55258499993712,-6.185359000484757,0],[106.5526479996863,-6.184793999934312,0],[106.55295700038113,-6.185125000542637,0],[106.55314999982664,-6.185080999957802,0],[106.55327799987317,-6.184123000525831,0],[106.55385500035655,-6.183700001661221,0],[106.55398048781524,-6.18368506235155,0],[106.55407135599948,-6.183674244230488,0],[106.55414900008445,-6.183665001223332,0],[106.55422200077767,-6.184519000089477,0],[106.55457500005677,-6.184503001738462,0],[106.55498699978543,-6.183919000905772,0],[106.55585500052194,-6.183694000584534,0],[106.55606400075936,-6.183416999800128,0],[106.55783200022285,-6.183006000734624,0],[106.55877700005398,-6.182363000528142,0],[106.55902899994905,-6.182364999993091,0],[106.55952100004365,-6.182040000528225,0],[106.5601369999868,-6.181997000315559,0],[106.56052900052227,-6.181467000309445,0],[106.56093799987788,-6.181606000205349,0],[106.56067099991418,-6.18112399966421,0],[106.56058300005061,-6.180554000345142,0],[106.56115700016096,-6.180144000560581,0],[106.56129600007814,-6.180684999901437,0],[106.56157800011047,-6.180777000750603,0],[106.56192799991481,-6.180679000588172,0],[106.56216999976417,-6.180186000290166,0],[106.56250600112143,-6.179887998667997,0],[106.56363800144864,-6.179420000067283,0],[106.5643969997103,-6.179502000163621,0],[106.56443700079159,-6.179904000756614,0],[106.5648760002844,-6.179781001601001,0],[106.56472900086963,-6.178112000232755,0],[106.56536699965577,-6.178216000218486,0],[106.56535600158173,-6.177570000283196,0],[106.56561699990102,-6.176910001350326,0],[106.56591900002483,-6.177150999575235,0],[106.56628500062101,-6.176975000819104,0],[106.56695199971946,-6.176220001165901,0],[106.56794500102782,-6.175745001063178,0],[106.56845500066575,-6.174938999967298,0],[106.56902699932964,-6.175184001682326,0],[106.57120999979317,-6.175063000009335,0],[106.57218699941133,-6.174852001319583,0],[106.57289699996414,-6.17442500045093,0],[106.57335800009658,-6.173876001133381,0],[106.57429600025499,-6.173680000898393,0],[106.57535499988893,-6.173894999955058,0],[106.57609399985574,-6.173146000646717,0],[106.57653400007179,-6.173080000951487,0],[106.57685900066011,-6.172498000336109,0],[106.57888217466491,-6.17220066412738,0],[106.57922100122379,-6.172038000327519,0],[106.57930499999104,-6.171668000163731,0],[106.57880100020088,-6.170874000624701,0],[106.57863700106769,-6.170041000404843,0],[106.57914800053054,-6.169998999859995,0],[106.57913300046192,-6.169344000045521,0],[106.58001500144216,-6.168707000460596,0],[106.58036799982295,-6.167428000158805,0],[106.58064100053274,-6.16696800018712,0],[106.58193100104367,-6.167151001541602,0],[106.58261400003563,-6.16690300037348,0],[106.58270000024936,-6.165494001088018,0],[106.58258399989843,-6.163838000551594,0],[106.58270000024936,-6.163446998549223,0],[106.58299399997725,-6.163172000960107,0],[106.5830619997493,-6.162770000092079,0],[106.58367537661182,-6.162214811003343,0],[106.58478182705569,-6.162286195727231,0],[106.58598940264773,-6.162134504750683,0],[106.58641175725667,-6.162247530126835,0],[106.58732253576706,-6.161984401496742,0],[106.58824156979486,-6.16138842229389,0],[106.58966600139144,-6.160082000207277,0],[106.5920360005544,-6.1585230005991,0],[106.59105826611432,-6.158369751324241,0],[106.59109609057768,-6.157827200466175,0],[106.59157101190209,-6.157773700578582,0],[106.59145293823944,-6.157004311262692,0],[106.59189152989714,-6.156748752984348,0],[106.5918390889458,-6.156449997167491,0],[106.59138314453178,-6.156431379823625,0],[106.59105452912273,-6.154063849246006,0],[106.59112643027808,-6.152866374210782,0],[106.59037901938527,-6.148218542105519,0],[106.5909489025167,-6.148093480166324,0],[106.59130136999315,-6.148317779210048,0],[106.59244904592201,-6.148302942286811,0],[106.59244457949845,-6.147723495460528,0],[106.59347722256194,-6.14782563405216,0],[106.60224204166995,-6.147716100367161,0],[106.60301744047376,-6.147575723942484,0],[106.60575000866852,-6.147705205079219,0],[106.60592018641427,-6.147588910139208,0],[106.60859572955478,-6.147573112057714,0],[106.60879454289687,-6.147762065928292,0],[106.61002896464116,-6.147763571919835,0],[106.61003528967905,-6.147932250137633,0],[106.61052434509617,-6.148006398838118,0],[106.61065183040802,-6.147825683502622,0],[106.61336603703838,-6.147775503868144,0],[106.61341957573099,-6.146056342972509,0],[106.61381813396804,-6.144777381811273,0],[106.61425529101624,-6.143704666284688,0],[106.61570504791729,-6.141422834548078,0],[106.61576453435542,-6.140923146580326,0],[106.61564556147917,-6.140500794350388,0],[106.61528864105385,-6.140042747010473,0],[106.61342076510044,-6.139049321911169,0],[106.61158263056943,-6.137151702609935,0],[106.61104130308429,-6.136408121053432,0],[106.61080692723678,-6.135480131572994,0],[106.61094487522675,-6.134695428118627,0],[106.6113147233073,-6.134227972698274,0],[106.61237934729323,-6.133739300247814,0],[106.61321503832397,-6.133089490766269,0],[106.61413341298838,-6.131235173537546,0],[106.61386536558906,-6.126717765791105,0],[106.61400813393887,-6.126103864549915,0],[106.61450306164296,-6.125656525991084,0],[106.61571658677711,-6.125275812273514,0],[106.61688539287812,-6.123683892568164,0],[106.61762666468427,-6.122938027951975,0],[106.61830915972138,-6.122694791141769,0],[106.61961587159153,-6.122871730622161,0],[106.62055983297019,-6.122708100245497,0],[106.62122186977501,-6.122344327846593,0],[106.62262407525482,-6.120872927042325,0],[106.62306561248833,-6.120690712502559,0],[106.62643063327067,-6.120700762253821,0],[106.62856994237372,-6.119959354085331,0],[106.62889475701078,-6.120624080407914,0],[106.62963799972069,-6.12067700142977,0],[106.62981100087134,-6.120820999595912,0],[106.62984100100857,-6.121082998830873,0],[106.63019700066074,-6.120874000621924,0],[106.63044299980972,-6.121207999755024,0],[106.63065600024503,-6.120900000308963,0],[106.63137300136886,-6.120798000353517,0],[106.63181400051151,-6.120308999843434,0],[106.63209400089397,-6.120225999638307,0],[106.63225900075041,-6.120054000081589,0],[106.63193900018496,-6.119503999805232,0],[106.63203000131989,-6.119087001006844,0],[106.6315690002891,-6.118248000450451,0],[106.63156300133966,-6.11750599989034,0],[106.63136134393139,-6.117242930686508,0],[106.63210826344574,-6.116513363996404,0],[106.63258162170155,-6.115798686288537,0],[106.63242571818569,-6.114875980812776,0],[106.6327557259834,-6.112231954102893,0],[106.6351458411205,-6.107654672552152,0],[106.63579827313832,-6.106106019034191,0],[106.63617119435548,-6.106119239538298,0],[106.63621376192353,-6.105968381185244,0],[106.63653648707925,-6.10598175545098,0],[106.63749517094708,-6.105610264727918,0],[106.6372755086056,-6.106123058315412,0],[106.63869554564381,-6.106075729574927,0],[106.63959970806211,-6.106519964612974,0],[106.63973662298953,-6.106847584230004,0],[106.64042303378297,-6.10721786470166,0],[106.64196373522508,-6.107799934903625,0],[106.6427957018406,-6.108585607226893,0],[106.64203200000013,-6.110154999880852,0],[106.64197299955056,-6.110661000379078,0],[106.64198400031955,-6.111559998742957,0],[106.64259399951658,-6.114583998833569,0],[106.64257531994858,-6.116097740337351,0],[106.64135150910442,-6.122634400247684,0],[106.64463735507256,-6.122657727596916,0],[106.64528049851035,-6.122518034127937,0],[106.64552974686569,-6.122292114617617,0],[106.64679530062449,-6.122336027858721,0],[106.64694426914636,-6.122005308616338,0],[106.64781689261335,-6.121512663195852,0],[106.6554269130506,-6.119428720455973,0],[106.66276067818178,-6.119616021010184,0],[106.67255866496943,-6.119462409726196,0],[106.67293899279612,-6.116704956341353,0],[106.67264251281975,-6.116500799234904,0],[106.67232447956475,-6.11569073294585,0],[106.67240961380253,-6.115396189725606,0],[106.67263865365729,-6.115259106378632,0],[106.67289425579665,-6.114440074494251,0],[106.67294956866195,-6.113779574513265,0],[106.67276279633796,-6.113672492940576,0],[106.67299116604947,-6.113320085965675,0],[106.67301027141895,-6.112544857229866,0],[106.6725650636692,-6.112345274339244,0],[106.67246400499634,-6.112130263581392,0],[106.67262792687447,-6.111806766295983,0],[106.67229765317542,-6.111671420994472,0],[106.6722824420027,-6.111391545352424,0],[106.67173684751998,-6.111192274035086,0],[106.67191524395223,-6.110911796599513,0],[106.67056511111451,-6.110638066332804,0],[106.67089047372389,-6.109586834257436,0],[106.67189458898889,-6.109655489067236,0],[106.67242021392288,-6.109582078575808,0],[106.67244775626952,-6.109441974323882,0],[106.67120717387897,-6.105922282496605,0],[106.6715302745305,-6.105787245002564,0],[106.67151299992759,-6.104683000631661,0],[106.67178499991411,-6.104433993507646,0],[106.6716410008724,-6.103909000083913,0],[106.67192500055454,-6.103753000519433,0],[106.67285300156553,-6.103844999553429,0],[106.6728134155059,-6.102932648791108,0],[106.67472700043592,-6.102664000133561,0],[106.67555900208578,-6.102088999903751,0],[106.67553900019766,-6.100032000013135,0],[106.67566300004621,-6.099951999886422,0],[106.67577199982615,-6.098609000336929,0],[106.67707133023963,-6.098171129373302,0],[106.68703024661716,-6.097364488760839,0],[106.68778106032828,-6.097133841364506,0],[106.68799279234241,-6.097068797858024,0],[106.68830615795119,-6.097636930173623,0],[106.6880140222275,-6.098229984560678,0],[106.68852203928363,-6.100173477109954,0],[106.68914610519971,-6.100246883512688,0],[106.6891026878254,-6.101266215114318,0],[106.68944502769537,-6.101821392065612,0],[106.6887696527052,-6.102537665836902,0],[106.68865227344027,-6.102835898351926,0],[106.68826202012802,-6.103009381761384,0],[106.68818732521216,-6.10319981726934,0],[106.68861828568147,-6.103431731656616,0],[106.68850190534317,-6.104049356672106,0],[106.688775453127,-6.104389425977625,0],[106.68877710512878,-6.104916962683471,0],[106.68840192375038,-6.105323665464924,0],[106.68842152498986,-6.107003124305134,0],[106.68867940615509,-6.106919774928785,0],[106.68874044847529,-6.108093093147428,0],[106.6890134024727,-6.10824296270957,0],[106.68928386274686,-6.108740944478097,0],[106.69125264555782,-6.108881892333459,0],[106.69143364890107,-6.107151564498098,0],[106.69294106416861,-6.106515208004559,0],[106.6930120149064,-6.106274542446819,0],[106.69475381051309,-6.107205709739909,0],[106.69489697771482,-6.108267515360182,0],[106.69548146116458,-6.109432002585574,0],[106.69527757503612,-6.109583371574534,0],[106.6964252572532,-6.110842973809618,0],[106.69688696885136,-6.110590308196855,0],[106.69644812566537,-6.111273546572965,0],[106.69656314954761,-6.111366490215721,0],[106.69628469426745,-6.111747771451749,0],[106.69613010858008,-6.111615476988908,0],[106.6958588470087,-6.112003913564408,0],[106.69589161036374,-6.113299331594548,0],[106.69579834727091,-6.113285271456288,0],[106.69562816233866,-6.113892299175312,0],[106.69398818537955,-6.113423763397378,0],[106.69393169033133,-6.113700271516253,0],[106.69305642312247,-6.113559482299386,0],[106.69125349536408,-6.113719473925615,0],[106.6906916602393,-6.115199792720121,0],[106.69025491911113,-6.116947557516101,0],[106.68962482280453,-6.120667448006491,0],[106.6899775085716,-6.121086216870898,0],[106.68957362422321,-6.121489424811241,0],[106.68794490315462,-6.124613145450058,0],[106.6866332909746,-6.124821828377151,0],[106.68580472358408,-6.128427216336484,0],[106.68618946573204,-6.131918122617802,0],[106.68640315517523,-6.136022943789848,0],[106.68666493952038,-6.136036473740099,0],[106.68676115357886,-6.136987180250566,0],[106.68661279591139,-6.139977048845803,0],[106.68642293967103,-6.141172691219713,0],[106.68659261076694,-6.141538205669032,0],[106.6864511503642,-6.144003575911879,0],[106.68729731125958,-6.143993728005273,0],[106.68772465780651,-6.15330150425044,0],[106.68734388711042,-6.154217829839357,0],[106.68776003166579,-6.154284700431337,0],[106.6880360318503,-6.159932461885618,0],[106.69093326482992,-6.159937636981822,0],[106.6909856671537,-6.160633680659529,0],[106.69091873278357,-6.161010706816741,0],[106.69029136016894,-6.161803407769687,0],[106.69023986065201,-6.162603884512968,0],[106.68968500004709,-6.163686999612848,0],[106.6893110017499,-6.163959000325675,0],[106.68930227551523,-6.166976268002426,0],[106.68866248997999,-6.166965138458482,0],[106.68837553394226,-6.168067780309594,0],[106.68815709241125,-6.168158191136441,0],[106.68811491561036,-6.168427479746919,0],[106.6870111358578,-6.168624766712419,0],[106.68707105079231,-6.169428448070992,0],[106.68691688821147,-6.169436113475737,0],[106.68681143048867,-6.172372014567387,0],[106.68855843452737,-6.172606920178749,0],[106.68904656917128,-6.172756097054727,0],[106.68916927993743,-6.173006917584954,0],[106.68954634777792,-6.173185156326284,0],[106.69123268139897,-6.173509961709622,0],[106.69100300014713,-6.174316000072237,0],[106.69117615311309,-6.174906145880477,0],[106.69273997269902,-6.175041133252323,0],[106.69342572412903,-6.175315281291423,0],[106.69372445618183,-6.175666022089356,0],[106.69451718618241,-6.175753216594766,0],[106.69559813435366,-6.175139692783963,0],[106.69605747080622,-6.175253066880037,0],[106.70024644253682,-6.176632107807073,0],[106.70125538175492,-6.177027319191136,0],[106.7012489327495,-6.177278455035798,0],[106.70247591374832,-6.177482672122757,0],[106.70760899867287,-6.179185191019189,0],[106.71261015970971,-6.181114163244081,0],[106.71363274793028,-6.181315420084696,0],[106.71436909427369,-6.181707798642573,0],[106.71546021945882,-6.182034435467144,0],[106.71540368039317,-6.182293001268789,0],[106.718689043966,-6.18365324990065,0],[106.71988050468018,-6.18395802002318,0],[106.71985605433477,-6.184159064493654,0],[106.72063060692554,-6.184167322147625,0],[106.72152184258691,-6.184774505241316,0],[106.72309566491356,-6.184672507816207,0],[106.72436955324157,-6.184962643742437,0],[106.72441017056713,-6.185324964822608,0],[106.72413949290065,-6.185892847999905,0],[106.72366907393246,-6.185682646634271,0],[106.72270062358085,-6.185592483377158,0],[106.72225538079681,-6.186512621838981,0],[106.72137147898141,-6.187064549503583,0],[106.7209010133008,-6.18683999016555,0],[106.7188710255746,-6.187815499523126,0],[106.71794530089451,-6.187762437834876,0],[106.71747202348708,-6.188332172157929,0],[106.71724417749334,-6.189026716204975,0],[106.71684137741153,-6.189213433606901,0],[106.71677436848124,-6.18974596729425,0],[106.71631455143003,-6.189858104752942,0],[106.7159093312868,-6.190221269315372,0],[106.71511043345352,-6.189894892041005,0],[106.71489539294417,-6.189928482386633,0],[106.7149381356837,-6.191136526895558,0],[106.71482913770038,-6.191621347414536,0],[106.71461995600333,-6.191619033326647,0],[106.71387716514603,-6.191086123063088,0],[106.71344009433612,-6.191766391438884,0],[106.71589330354551,-6.192661609797474,0],[106.71593481828805,-6.192562787464112,0],[106.71621592808991,-6.192630660056504,0],[106.71630442382352,-6.192274498763213,0],[106.71678272191505,-6.192332762637363,0],[106.7167502585973,-6.192458470285917,0],[106.71693874490686,-6.192529634213189,0],[106.71783524110252,-6.192541683811356,0],[106.71802718951918,-6.192759373064074,0],[106.71962908330013,-6.191904868954817,0],[106.71987899910373,-6.192507000422753,0],[106.72023399982929,-6.192463000460815,0],[106.72098100019201,-6.191782000289809,0],[106.7219763380184,-6.191454657541438,0],[106.72354082595093,-6.191969932184632,0],[106.72412891972978,-6.191791580286973,0],[106.72471264949296,-6.193951839086017,0],[106.72446210127538,-6.195014293576227,0],[106.72386529563491,-6.196191514315371,0],[106.7244732924872,-6.196620174034634,0],[106.72349741216988,-6.197930211365135,0],[106.723942136626,-6.198302123986187,0],[106.72338755000725,-6.199066971808596,0],[106.72354684915491,-6.200271639124932,0],[106.72392451796833,-6.200626284615236,0],[106.7242342265356,-6.201217402148755,0],[106.72452750311965,-6.202269115777355,0],[106.72437834595155,-6.207861897947712,0],[106.72387628472578,-6.207851572079568,0],[106.72382770114028,-6.208533572484906,0],[106.72356772420545,-6.208534418439032,0],[106.723379001639,-6.211148759865049,0],[106.7230869278991,-6.21230704825859,0],[106.7199129212855,-6.212173833456978,0],[106.71982389554591,-6.21236551755589,0],[106.71995404166763,-6.21287348609913,0],[106.71963703428871,-6.213717849372038,0],[106.71968919496568,-6.214136354992998,0],[106.7192062687538,-6.214499780397463,0],[106.71881252818162,-6.216561543346312,0],[106.71874267338848,-6.217135954094238,0],[106.71894017339358,-6.217219046804223,0],[106.71883696415395,-6.218565126176712,0],[106.7182991859125,-6.218602762766243,0],[106.7178291909491,-6.220189277468815,0],[106.71794449869897,-6.221648286118292,0],[106.71817817026732,-6.221826959495522,0],[106.71808948768413,-6.223044397847747,0],[106.71986771985704,-6.2230924387869,0],[106.7200645775667,-6.223896252755779,0],[106.72018709968663,-6.223895852714908,0],[106.72016728015655,-6.224233848479758,0],[106.72753091786414,-6.224314910184291,0],[106.72860368687475,-6.224294897369199,0],[106.732083815981,-6.223916766311516,0],[106.73418485415797,-6.223987622081126,0],[106.7374127983162,-6.223770744189476,0],[106.73743564786378,-6.223878311147446,0]]],"type":"Polygon"},"properties":{"fid":24609,"ID_PROV":"36","PROVINSI":"BANTEN","ID_KABKOT":"36.71","KABKOT":"KOTA TANGERANG"}}]}